<?xml version="1.0" encoding="UTF-8"?>
<osm version="0.6" generator="CGImap 0.8.3 (2376071 spike-08.openstreetmap.org)" copyright="OpenStreetMap and contributors" attribution="http://www.openstreetmap.org/copyright" license="http://opendatacommons.org/licenses/odbl/1-0/">
 <bounds minlat="36.2034000" minlon="-110.5206000" maxlat="36.2098000" maxlon="-110.5024000"/>
 <node id="8433034433" visible="true" version="5" changeset="99558218" timestamp="2021-02-19T03:46:07Z" user="xuhan417" uid="12670740" lat="36.2078999" lon="-110.5091470"/>
 <node id="8433034435" visible="true" version="6" changeset="99559987" timestamp="2021-02-19T04:26:31Z" user="xuhan417" uid="12670740" lat="36.2078999" lon="-110.5138343"/>
 <node id="8433034436" visible="true" version="8" changeset="99776643" timestamp="2021-02-22T22:42:14Z" user="xuhan417" uid="12670740" lat="36.2070899" lon="-110.5189932"/>
 <node id="8433034437" visible="true" version="6" changeset="99776643" timestamp="2021-02-22T22:42:14Z" user="xuhan417" uid="12670740" lat="36.2078999" lon="-110.5035796"/>
 <node id="8433034438" visible="true" version="9" changeset="99801686" timestamp="2021-02-23T07:44:13Z" user="xuhan417" uid="12670740" lat="36.2078999" lon="-110.5189932"/>
 <node id="8447248813" visible="true" version="2" changeset="99794121" timestamp="2021-02-23T06:17:16Z" user="xuhan417" uid="12670740" lat="36.2078882" lon="-110.5091256"/>
 <way id="908207007" visible="true" version="3" changeset="99776643" timestamp="2021-02-22T22:42:14Z" user="xuhan417" uid="12670740">
  <nd ref="8433034435"/>
  <nd ref="8433034433"/>
  <tag k="highway" v="motorway"/>
  <tag k="lane_markings" v="yes"/>
  <tag k="lanes" v="3"/>
  <tag k="maxspeed" v="75 mph"/>
  <tag k="name" v="Merge Area IHP"/>
  <tag k="oneway" v="yes"/>
  <tag k="ref" v="2"/>
  <tag k="surface" v="paved"/>
  <tag k="turn:lanes" v="none|none|merge_to_left"/>
 </way>
 <way id="908207008" visible="true" version="2" changeset="99776643" timestamp="2021-02-22T22:42:14Z" user="xuhan417" uid="12670740">
  <nd ref="8433034436"/>
  <nd ref="8433034435"/>
  <tag k="destination" v="Merge Area IHP"/>
  <tag k="destination:ref" v="2"/>
  <tag k="highway" v="motorway"/>
  <tag k="lanes" v="1"/>
  <tag k="maxspeed" v="70 mph"/>
  <tag k="name" v="Merge Lane IHP"/>
  <tag k="oneway" v="yes"/>
  <tag k="surface" v="paved"/>
 </way>
 <way id="908207009" visible="true" version="2" changeset="99776643" timestamp="2021-02-22T22:42:14Z" user="xuhan417" uid="12670740">
  <nd ref="8433034433"/>
  <nd ref="8433034437"/>
  <tag k="highway" v="motorway"/>
  <tag k="lanes" v="2"/>
  <tag k="maxspeed" v="75 mph"/>
  <tag k="name" v="Down Stream IHP"/>
  <tag k="oneway" v="yes"/>
  <tag k="ref" v="3"/>
  <tag k="surface" v="paved"/>
 </way>
 <way id="908207010" visible="true" version="3" changeset="99776643" timestamp="2021-02-22T22:42:14Z" user="xuhan417" uid="12670740">
  <nd ref="8433034438"/>
  <nd ref="8433034435"/>
  <tag k="highway" v="motorway"/>
  <tag k="lanes" v="2"/>
  <tag k="maxspeed" v="75 mph"/>
  <tag k="name" v="Up Stream IHP"/>
  <tag k="oneway" v="yes"/>
  <tag k="ref" v="1"/>
  <tag k="surface" v="paved"/>
 </way>
 <way id="909785589" visible="true" version="1" changeset="99776643" timestamp="2021-02-22T22:42:14Z" user="xuhan417" uid="12670740">
  <nd ref="8433034433"/>
  <nd ref="8447248813"/>
  <tag k="highway" v="motorway"/>
  <tag k="lanes" v="1"/>
  <tag k="name" v="Extra Edge"/>
  <tag k="oneway" v="yes"/>
 </way>
</osm>
